NORAD_CAT_ID,OBJECT_NAME,OBJECT_TYPE,EPOCH,MEAN_MOTION,ECCENTRICITY,INCLINATION,RA_OF_ASC_NODE,ARG_OF_PERICENTER,MEAN_ANOMALY,BSTAR,MEAN_MOTION_DOT,MEAN_MOTION_DDOT,TLE_LINE0,TLE_LINE1,TLE_LINE2,SEMIMAJOR_AXIS,PERIOD,APOGEE,PERIGEE,DECAYED
52138.0,STARLINK-3723,PAYLOAD,2022-12-24 12:51:44,15.08847186,0.0002432,53.2178,286.6417,39.6036,320.5133,0.00035169,5.314e-05,0.0,0 STARLINK-3723,1 52138U 22029BC  22358.53593653  .00005314  00000-0  35169-3 0  9993,2 52138  53.2178 286.6417 0002432  39.6036 320.5133 15.08847186 44136,6917.858,95.437,541.406,538.0409999999998,0.0
52138.0,STARLINK-3723,PAYLOAD,2022-12-25 04:45:35,15.08850837,0.0002437,53.2173,283.6727,31.7142,328.3996,0.00029336,4.385e-05,0.0,0 STARLINK-3723,1 52138U 22029BC  22359.19833104  .00004385  00000-0  29336-3 0  9990,2 52138  53.2173 283.6727 0002437  31.7142 328.3996 15.08850837 44239,6917.847,95.437,541.398,538.026,0.0
52138.0,STARLINK-3723,PAYLOAD,2022-12-26 01:25:36,15.08843791,0.0002446,53.2169,279.8048,37.3207,322.7955,2.9721e-05,1.85e-06,0.0,0 STARLINK-3723,1 52138U 22029BC  22360.05945131  .00000185  00000-0  29721-4 0  9994,2 52138  53.2169 279.8048 0002446  37.3207 322.7955 15.08843791 44369,6917.869000000002,95.437,541.4259999999998,538.0419999999998,0.0
52138.0,STARLINK-3723,PAYLOAD,2022-12-26 04:36:22,15.08841512,0.0002532,53.2172,279.2114,35.1631,324.9528,-1.7681e-05,-5.700000000000001e-06,0.0,0 STARLINK-3723,1 52138U 22029BC  22360.19193236 -.00000570  00000-0 -17681-4 0  9992,2 52138  53.2172 279.2114 0002532  35.1631 324.9528 15.08841512 44385,6917.876,95.437,541.492,537.989,0.0
52138.0,STARLINK-3723,PAYLOAD,2022-12-26 18:54:51,15.08844959,0.0002285,53.2175,276.5333,40.3583,319.7579,5.197600000000001e-05,5.39e-06,0.0,0 STARLINK-3723,1 52138U 22029BC  22360.78809167  .00000539  00000-0  51976-4 0  9992,2 52138  53.2175 276.5333 0002285  40.3583 319.7579 15.08844959 44476,6917.865,95.437,541.311,538.149,0.0
52138.0,STARLINK-3723,PAYLOAD,2022-12-27 04:27:09,15.08860914,0.0002375,53.2157,274.75,39.3694,320.747,0.00039894,6.07e-05,0.0,0 STARLINK-3723,1 52138U 22029BC  22361.18552287  .00006070  00000-0  39894-3 0  9995,2 52138  53.2157 274.7500 0002375  39.3694 320.7470 15.08860914 44531,6917.816,95.436,541.3240000000002,538.038,0.0
52138.0,STARLINK-3723,PAYLOAD,2022-12-27 18:45:37,15.08857271,0.000243,53.2158,272.0726,40.3512,319.766,0.00026588,3.948e-05,0.0,0 STARLINK-3723,1 52138U 22029BC  22361.78168119  .00003948  00000-0  26588-3 0  9995,2 52138  53.2158 272.0726 0002430  40.3512 319.7660 15.08857271 44627,6917.828,95.436,541.374,538.012,0.0
52138.0,STARLINK-3723,PAYLOAD,2022-12-27 21:56:23,15.08854926,0.0002421999999999,53.216,271.4777,39.3929,320.7239,0.00020066,2.908e-05,0.0,0 STARLINK-3723,1 52138U 22029BC  22361.91416065  .00002908  00000-0  20066-3 0  9996,2 52138  53.2160 271.4777 0002422  39.3929 320.7239 15.08854926 44640,6917.835,95.437,541.375,538.024,0.0
52138.0,STARLINK-3723,PAYLOAD,2022-12-27 23:31:46,15.08852812,0.0002359,53.216,271.1807,38.3772,321.7387,0.00013377,1.842e-05,0.0,0 STARLINK-3723,1 52138U 22029BC  22361.98039893  .00001842  00000-0  13377-3 0  9996,2 52138  53.2160 271.1807 0002359  38.3772 321.7387 15.08852812 44653,6917.840999999999,95.437,541.3380000000002,538.0740000000002,0.0
52138.0,STARLINK-3723,PAYLOAD,2022-12-28 01:07:09,15.08853805,0.0002360999999999,53.2161,270.8833,38.5802,321.5359,0.00012442,1.693e-05,0.0,0 STARLINK-3723,1 52138U 22029BC  22362.04663745  .00001693  00000-0  12442-3 0  9999,2 52138  53.2161 270.8833 0002361  38.5802 321.5359 15.08853805 44669,6917.8380000000025,95.437,541.336,538.07,0.0
52138.0,STARLINK-3723,PAYLOAD,2022-12-29 04:08:44,15.0883384,0.000224,53.2171,265.8281,36.3478,323.7666,-0.00014369,-2.574e-05,0.0,0 STARLINK-3723,1 52138U 22029BC  22363.17273565 -.00002574  00000-0 -14369-3 0  9992,2 52138  53.2171 265.8281 0002240  36.3478 323.7666 15.08833840 44833,6917.899,95.438,541.314,538.215,0.0
52138.0,STARLINK-3723,PAYLOAD,2022-12-29 10:30:17,15.08827873,0.0002249,53.2173,264.6387,34.6781,325.4357,-0.00020695,-3.579e-05,0.0,0 STARLINK-3723,1 52138U 22029BC  22363.43770241 -.00003579  00000-0 -20695-3 0  9999,2 52138  53.2173 264.6387 0002249  34.6781 325.4357 15.08827873 44875,6917.917,95.438,541.3380000000002,538.227,0.0
52138.0,STARLINK-3723,PAYLOAD,2022-12-29 16:51:50,15.08819345,0.0002268,53.2166,263.45,34.8869,325.2272,-0.00017889,-3.133e-05,0.0,0 STARLINK-3723,1 52138U 22029BC  22363.70267016 -.00003133  00000-0 -17889-3 0  9997,2 52138  53.2166 263.4500 0002268  34.8869 325.2272 15.08819345 44915,6917.944,95.439,541.378,538.24,0.0
52138.0,STARLINK-3723,PAYLOAD,2022-12-30 10:21:04,15.0883735,0.0001915,53.2172,260.1786,40.7539,319.3596,-3.121e-05,-7.85e-06,0.0,0 STARLINK-3723,1 52138U 22029BC  22364.43130187 -.00000785  00000-0 -31210-4 0  9991,2 52138  53.2172 260.1786 0001915  40.7539 319.3596 15.08837350 45022,6917.888000000001,95.438,541.078,538.429,0.0
52138.0,STARLINK-3723,PAYLOAD,2022-12-30 18:17:59,15.08839916,0.0002207,53.2169,258.6917,32.2851,327.8276,0.00026531,3.937e-05,0.0,0 STARLINK-3723,1 52138U 22029BC  22364.76249413  .00003937  00000-0  26531-3 0  9999,2 52138  53.2169 258.6917 0002207  32.2851 327.8276 15.08839916 45078,6917.880999999999,95.438,541.2719999999998,538.219,0.0
52138.0,STARLINK-3723,PAYLOAD,2022-12-31 10:11:50,15.08861671,0.0002421999999999,53.2166,255.7161,36.3932,323.7225,0.0007907999999999,0.00012327,0.0,0 STARLINK-3723,1 52138U 22029BC  22365.42489549  .00012327  00000-0  79080-3 0  9999,2 52138  53.2166 255.7161 0002422  36.3932 323.7225 15.08861671 45171,6917.814,95.436,541.355,538.004,0.0
52138.0,STARLINK-3723,PAYLOAD,2023-01-01 02:05:41,15.0885156,0.0001835,53.2162,252.7436,33.2987,326.812,0.0003114,4.673e-05,0.0,0 STARLINK-3723,1 52138U 22029BC  23001.08729108  .00004673  00000-0  31140-3 0  9997,2 52138  53.2162 252.7436 0001835  33.2987 326.8120 15.08851560 45277,6917.845,95.437,540.979,538.441,0.0
52138.0,STARLINK-3723,PAYLOAD,2023-01-01 10:02:38,15.08839085,0.000234,53.2156,251.2567,31.9158,328.1975,-4.0127e-05,-9.27e-06,0.0,0 STARLINK-3723,1 52138U 22029BC  23001.41849815 -.00000927  00000-0 -40127-4 0  9998,2 52138  53.2156 251.2567 0002340  31.9158 328.1975 15.08839085 45323,6917.8830000000025,95.438,541.367,538.129,0.0
52138.0,STARLINK-3723,PAYLOAD,2023-01-01 22:45:43,15.08833238,0.0002477,53.2166,248.876,43.5463,316.5724,-0.00024962,-4.258e-05,0.0,0 STARLINK-3723,1 52138U 22029BC  23001.94842342 -.00004258  00000-0 -24962-3 0  9993,2 52138  53.2166 248.8760 0002477  43.5463 316.5724 15.08833238 45406,6917.901,95.438,541.48,538.052,0.0
52138.0,STARLINK-3723,PAYLOAD,2023-01-02 01:56:30,15.08831803,0.0002394,53.2162,248.2812,41.9526,318.1649,-0.00031224,-5.253e-05,0.0,0 STARLINK-3723,1 52138U 22029BC  23002.08090398 -.00005253  00000-0 -31224-3 0  9990,2 52138  53.2162 248.2812 0002394  41.9526 318.1649 15.08831803 45426,6917.905,95.438,541.427,538.114,0.0
52138.0,STARLINK-3723,PAYLOAD,2023-01-02 09:53:24,15.0885939,0.0002171999999999,53.2181,246.7937,39.8299,320.2853,-0.0009169,-0.00014859,0.0,0 STARLINK-3723,1 52138U 22029BC  23002.41208756 -.00014859  00000-0 -91690-3 0  9991,2 52138  53.2181 246.7937 0002172  39.8299 320.2853 15.08859390 45472,6917.821,95.436,541.189,538.184,0.0
52138.0,STARLINK-3723,PAYLOAD,2023-01-02 16:14:58,15.08834191,0.0002266,53.2166,245.6061,37.197,322.9179,3.2913e-05,2.35e-06,0.0,0 STARLINK-3723,1 52138U 22029BC  23002.67706585  .00000235  00000-0  32913-4 0  9997,2 52138  53.2166 245.6061 0002266  37.1970 322.9179 15.08834191 45519,6917.898,95.438,541.331,538.196,0.0
52138.0,STARLINK-3723,PAYLOAD,2023-01-02 22:36:30,15.08840726,0.0002298,53.216,244.4169,38.8619,321.2538,0.00014527,2.025e-05,0.0,0 STARLINK-3723,1 52138U 22029BC  23002.94202379  .00002025  00000-0  14527-3 0  9998,2 52138  53.2160 244.4169 0002298  38.8619 321.2538 15.08840726 45558,6917.878000000002,95.438,541.3330000000002,538.153,0.0
52138.0,STARLINK-3723,PAYLOAD,2023-01-03 11:19:37,15.08813912,0.0002038,53.2154,242.039,42.3642,317.7507,0.0012952999999999,0.00020372,0.0,0 STARLINK-3723,1 52138U 22029BC  23003.47196680  .00020372  00000-0  12953-2 0  9999,2 52138  53.2154 242.0390 0002038  42.3642 317.7507 15.08813912 45631,6917.96,95.439,541.235,538.415,0.0
52138.0,STARLINK-3723,PAYLOAD,2023-01-03 17:41:09,15.08838418,0.0002454,53.2154,240.8494,38.3095,321.8071,0.00033039,4.974e-05,0.0,0 STARLINK-3723,1 52138U 22029BC  23003.73691114  .00004974  00000-0  33039-3 0  9999,2 52138  53.2154 240.8494 0002454  38.3095 321.8071 15.08838418 45675,6917.885,95.438,541.448,538.053,0.0
52138.0,STARLINK-3723,PAYLOAD,2023-01-04 07:59:36,15.08857985,0.0002492,53.2154,238.1734,37.9468,322.1699,0.00050245,7.721e-05,0.0,0 STARLINK-3723,1 52138U 22029BC  23004.33306321  .00007721  00000-0  50245-3 0  9990,2 52138  53.2154 238.1734 0002492  37.9468 322.1699 15.08857985 45763,6917.825,95.436,541.414,537.966,0.0
52138.0,STARLINK-3723,PAYLOAD,2023-01-04 22:18:04,15.08850692,0.0002504999999999,53.2152,235.4972,40.1983,319.9194,0.00017323,2.47e-05,0.0,0 STARLINK-3723,1 52138U 22029BC  23004.92922048  .00002470  00000-0  17323-3 0  9991,2 52138  53.2152 235.4972 0002505  40.1983 319.9194 15.08850692 45850,6917.848000000001,95.437,541.446,537.98,0.0
52138.0,STARLINK-3723,PAYLOAD,2023-01-05 01:28:50,15.08851148,0.0002516,53.2151,234.9024,40.0111,320.1066,0.00013801,1.909e-05,0.0,0 STARLINK-3723,1 52138U 22029BC  23005.06169915  .00001909  00000-0  13801-3 0  9996,2 52138  53.2151 234.9024 0002516  40.0111 320.1066 15.08851148 45876,6917.846,95.437,541.452,537.971,0.0
52138.0,STARLINK-3723,PAYLOAD,2023-01-05 14:11:55,15.08856121,0.0002381,53.2153,232.5237,40.9802,319.1369,0.00019623,2.837e-05,0.0,0 STARLINK-3723,1 52138U 22029BC  23005.59161194  .00002837  00000-0  19623-3 0  9994,2 52138  53.2153 232.5237 0002381  40.9802 319.1369 15.08856121 45953,6917.831,95.437,541.3430000000002,538.049,0.0
